{
  "type": "FeatureCollection",
  "features": [
    {
      "type": "Feature",
      "properties": {
        "norad_id": 33765,
        "name": "COSMOS 2251 DEB",
        "group": "cosmos-2251-debris",
        "lat": 59.042642173926886,
        "lon": 174.84488506513978,
        "alt_km": 572.5260186414926,
        "timestamp": "2025-12-25T16:53:15.056171+00:00",
        "meta_object_name": "COSMOS 2251 DEB",
        "meta_object_id": "1993-036N",
        "meta_epoch": "2025-12-25T02:50:11.077728",
        "meta_mean_motion": 15.10649226,
        "meta_eccentricity": 0.00648095,
        "meta_inclination": 74.0099,
        "meta_ra_of_asc_node": 147.498,
        "meta_arg_of_pericenter": 237.7179,
        "meta_mean_anomaly": 242.9482,
        "meta_ephemeris_type": 0,
        "meta_classification_type": "U",
        "meta_norad_cat_id": 33765,
        "meta_element_set_no": 999,
        "meta_rev_at_epoch": 89805,
        "meta_bstar": 0.0016350489,
        "meta_mean_motion_dot": 0.0002851,
        "meta_mean_motion_ddot": 0,
        "tle_line1": "1 33765U 93036N   25359.11818377  .00028510  00000+0  16350-2 0  9997",
        "tle_line2": "2 33765  74.0099 147.4980 0064809 237.7179 242.9482 15.10649226898058"
      },
      "geometry": {
        "type": "Point",
        "coordinates": [
          174.84488506513978,
          59.042642173926886
        ]
      }
    },
    {
      "type": "Feature",
      "properties": {
        "norad_id": 33766,
        "name": "COSMOS 2251 DEB",
        "group": "cosmos-2251-debris",
        "lat": 0.7714462833544474,
        "lon": 111.65665761565118,
        "alt_km": 747.4833848164653,
        "timestamp": "2025-12-25T16:53:15.056181+00:00",
        "meta_object_name": "COSMOS 2251 DEB",
        "meta_object_id": "1993-036P",
        "meta_epoch": "2025-12-25T01:49:30.661248",
        "meta_mean_motion": 14.34969639,
        "meta_eccentricity": 0.00648075,
        "meta_inclination": 74.1861,
        "meta_ra_of_asc_node": 112.5773,
        "meta_arg_of_pericenter": 312.5858,
        "meta_mean_anomaly": 46.9837,
        "meta_ephemeris_type": 0,
        "meta_classification_type": "U",
        "meta_norad_cat_id": 33766,
        "meta_element_set_no": 999,
        "meta_rev_at_epoch": 87922,
        "meta_bstar": 0.00054110349,
        "meta_mean_motion_dot": 1.552e-05,
        "meta_mean_motion_ddot": 0,
        "tle_line1": "1 33766U 93036P   25359.07604932  .00001552  00000+0  54110-3 0  9997",
        "tle_line2": "2 33766  74.1861 112.5773 0064807 312.5858  46.9837 14.34969639879226"
      },
      "geometry": {
        "type": "Point",
        "coordinates": [
          111.65665761565118,
          0.7714462833544474
        ]
      }
    },
    {
      "type": "Feature",
      "properties": {
        "norad_id": 33768,
        "name": "COSMOS 2251 DEB",
        "group": "cosmos-2251-debris",
        "lat": -39.01159759767803,
        "lon": -174.4350442901955,
        "alt_km": 820.2863195213458,
        "timestamp": "2025-12-25T16:53:15.056192+00:00",
        "meta_object_name": "COSMOS 2251 DEB",
        "meta_object_id": "1993-036R",
        "meta_epoch": "2025-12-25T00:09:03.212352",
        "meta_mean_motion": 13.58464987,
        "meta_eccentricity": 0.03668511,
        "meta_inclination": 74.0665,
        "meta_ra_of_asc_node": 200.0709,
        "meta_arg_of_pericenter": 355.1382,
        "meta_mean_anomaly": 157.2577,
        "meta_ephemeris_type": 0,
        "meta_classification_type": "U",
        "meta_norad_cat_id": 33768,
        "meta_element_set_no": 999,
        "meta_rev_at_epoch": 83462,
        "meta_bstar": 0.00032978695,
        "meta_mean_motion_dot": 3.51e-06,
        "meta_mean_motion_ddot": 0,
        "tle_line1": "1 33768U 93036R   25359.00628718  .00000351  00000+0  32979-3 0  9995",
        "tle_line2": "2 33768  74.0665 200.0709 0366851 355.1382 157.2577 13.58464987834623"
      },
      "geometry": {
        "type": "Point",
        "coordinates": [
          -174.4350442901955,
          -39.01159759767803
        ]
      }
    },
    {
      "type": "Feature",
      "properties": {
        "norad_id": 33779,
        "name": "COSMOS 2251 DEB",
        "group": "cosmos-2251-debris",
        "lat": -24.172039626940393,
        "lon": -27.043430314514115,
        "alt_km": 653.7348874328472,
        "timestamp": "2025-12-25T16:53:15.056202+00:00",
        "meta_object_name": "COSMOS 2251 DEB",
        "meta_object_id": "1993-036U",
        "meta_epoch": "2025-12-24T21:05:36.174624",
        "meta_mean_motion": 14.70766262,
        "meta_eccentricity": 0.00159079,
        "meta_inclination": 74.045,
        "meta_ra_of_asc_node": 147.1786,
        "meta_arg_of_pericenter": 180.0907,
        "meta_mean_anomaly": 339.8161,
        "meta_ephemeris_type": 0,
        "meta_classification_type": "U",
        "meta_norad_cat_id": 33779,
        "meta_element_set_no": 999,
        "meta_rev_at_epoch": 88706,
        "meta_bstar": 0.0027468588,
        "meta_mean_motion_dot": 0.00016808,
        "meta_mean_motion_ddot": 0,
        "tle_line1": "1 33779U 93036U   25358.87889091  .00016808  00000+0  27469-2 0  9995",
        "tle_line2": "2 33779  74.0450 147.1786 0015907 180.0907 339.8161 14.70766262887063"
      },
      "geometry": {
        "type": "Point",
        "coordinates": [
          -27.043430314514115,
          -24.172039626940393
        ]
      }
    },
    {
      "type": "Feature",
      "properties": {
        "norad_id": 33782,
        "name": "COSMOS 2251 DEB",
        "group": "cosmos-2251-debris",
        "lat": 0.2941684128986377,
        "lon": -106.34411429655187,
        "alt_km": 748.5969436234609,
        "timestamp": "2025-12-25T16:53:15.056213+00:00",
        "meta_object_name": "COSMOS 2251 DEB",
        "meta_object_id": "1993-036X",
        "meta_epoch": "2025-12-24T17:50:41.915616",
        "meta_mean_motion": 14.40475861,
        "meta_eccentricity": 0.00211225,
        "meta_inclination": 74.0327,
        "meta_ra_of_asc_node": 255.3467,
        "meta_arg_of_pericenter": 318.6664,
        "meta_mean_anomaly": 104.7613,
        "meta_ephemeris_type": 0,
        "meta_classification_type": "U",
        "meta_norad_cat_id": 33782,
        "meta_element_set_no": 999,
        "meta_rev_at_epoch": 88299,
        "meta_bstar": 0.00033132965,
        "meta_mean_motion_dot": 1.03e-05,
        "meta_mean_motion_ddot": 0,
        "tle_line1": "1 33782U 93036X   25358.74354069  .00001030  00000+0  33133-3 0  9994",
        "tle_line2": "2 33782  74.0327 255.3467 0021122 318.6664 104.7613 14.40475861882990"
      },
      "geometry": {
        "type": "Point",
        "coordinates": [
          -106.34411429655187,
          0.2941684128986377
        ]
      }
    },
    {
      "type": "Feature",
      "properties": {
        "norad_id": 33785,
        "name": "COSMOS 2251 DEB",
        "group": "cosmos-2251-debris",
        "lat": 0.5722223453688469,
        "lon": -145.6576351392983,
        "alt_km": 675.6671494153143,
        "timestamp": "2025-12-25T16:53:15.056223+00:00",
        "meta_object_name": "COSMOS 2251 DEB",
        "meta_object_id": "1993-036AA",
        "meta_epoch": "2025-12-24T13:03:17.999712",
        "meta_mean_motion": 14.70740898,
        "meta_eccentricity": 0.00232499,
        "meta_inclination": 73.8666,
        "meta_ra_of_asc_node": 36.7814,
        "meta_arg_of_pericenter": 334.1933,
        "meta_mean_anomaly": 187.5116,
        "meta_ephemeris_type": 0,
        "meta_classification_type": "U",
        "meta_norad_cat_id": 33785,
        "meta_element_set_no": 999,
        "meta_rev_at_epoch": 88680,
        "meta_bstar": 0.0020429861,
        "meta_mean_motion_dot": 0.00012503,
        "meta_mean_motion_ddot": 0,
        "tle_line1": "1 33785U 93036AA  25358.54395833  .00012503  00000+0  20430-2 0  9991",
        "tle_line2": "2 33785  73.8666  36.7814 0023249 334.1933 187.5116 14.70740898886806"
      },
      "geometry": {
        "type": "Point",
        "coordinates": [
          -145.6576351392983,
          0.5722223453688469
        ]
      }
    },
    {
      "type": "Feature",
      "properties": {
        "norad_id": 33789,
        "name": "COSMOS 2251 DEB",
        "group": "cosmos-2251-debris",
        "lat": 37.74435816409834,
        "lon": -127.37332085927457,
        "alt_km": 789.6385105676154,
        "timestamp": "2025-12-25T16:53:15.056234+00:00",
        "meta_object_name": "COSMOS 2251 DEB",
        "meta_object_id": "1993-036AE",
        "meta_epoch": "2025-12-25T06:07:07.523616",
        "meta_mean_motion": 13.88822638,
        "meta_eccentricity": 0.02395542,
        "meta_inclination": 74.0643,
        "meta_ra_of_asc_node": 66.1659,
        "meta_arg_of_pericenter": 179.0325,
        "meta_mean_anomaly": 240.4831,
        "meta_ephemeris_type": 0,
        "meta_classification_type": "U",
        "meta_norad_cat_id": 33789,
        "meta_element_set_no": 999,
        "meta_rev_at_epoch": 85269,
        "meta_bstar": 0.00063647586,
        "meta_mean_motion_dot": 9.44e-06,
        "meta_mean_motion_ddot": 0,
        "tle_line1": "1 33789U 93036AE  25359.25494819  .00000944  00000+0  63648-3 0  9993",
        "tle_line2": "2 33789  74.0643  66.1659 0239554 179.0325 240.4831 13.88822638852695"
      },
      "geometry": {
        "type": "Point",
        "coordinates": [
          -127.37332085927457,
          37.74435816409834
        ]
      }
    }
  ]
}